STARLINK-31258          
1 58829U 24017D   25324.27201191  .00000608  00000+0  32649-4 0  9996
2 58829  53.1620 352.5704 0001290  96.5156 263.5992 15.30190495103301
STARLINK-31253          
1 58830U 24017E   25324.25301676  .00000697  00000+0  35658-4 0  9996
2 58830  53.1605 352.4534 0001267 117.3439 242.7691 15.30191168103309
STARLINK-31232          
1 58831U 24017F   25324.24879660  .00000294  00000+0  22054-4 0  9998
2 58831  53.1614 352.4234 0001593  76.6291 283.4888 15.30192540103307
STARLINK-31263          
1 58832U 24017G   25324.22777258  .00001500  00000+0  62768-4 0  9994
2 58832  53.1589 342.3544 0001029  88.9072 271.2047 15.30194653103554
STARLINK-31171          
1 58834U 24017J   25324.29774609  .00001415  00000+0  59915-4 0  9995
2 58834  53.1617 328.8798 0001291  92.5225 267.5924 15.30193121103630
STARLINK-31246          
1 58835U 24017K   25324.26251746  .00002015  00000+0  80179-4 0  9998
2 58835  53.1610 352.5095 0001259  98.6368 261.4776 15.30190270103301
STARLINK-31251          
1 58836U 24017L   25324.26990225 -.00000250  00000+0  36954-5 0  9994
2 58836  53.1633 352.5563 0001300  89.3401 270.7749 15.30189629103410
STARLINK-31249          
1 58838U 24017N   25324.27623271 -.00000156  00000+0  68684-5 0  9991
2 58838  53.1619 352.5965 0001528  76.8430 283.2742 15.30193216103304
STARLINK-31250          
1 58839U 24017P   25324.24360912  .00000612  00000+0  32793-4 0  9996
2 58839  53.1613 342.4532 0001363  80.2850 279.8304 15.30187695103397
STARLINK-31248          
1 58840U 24017Q   25324.12189081 -.00002302  00000+0 -65627-4 0  9993
2 58840  53.1603   5.8115 0001988 115.7295 244.3911 15.30180378103218
STARLINK-31236          
1 58841U 24017R   25324.28256359  .00001305  00000+0  56203-4 0  9994
2 58841  53.1599 352.6358 0001355  89.5426 270.5730 15.30196399103307
STARLINK-31228          
1 58842U 24017S   25324.27940290 -.00003680  00000+0 -11224-3 0  9991
2 58842  53.1609 352.6166 0001689  68.4097 291.7084 15.30180475103302
STARLINK-31280          
1 58843U 24017T   25324.08978320  .00000121  00000+0  16208-4 0  9999
2 58843  53.1602 353.5634 0001203 100.9465 259.1672 15.30195864103274
STARLINK-31269          
1 58844U 24017U   25324.05580289  .00000430  00000+0  26628-4 0  9990
2 58844  53.1588  83.6886 0000803 107.2275 252.8814 15.30187027101988
STARLINK-31264          
1 58845U 24017V   25324.07046749  .00000352  00000+0  24013-4 0  9990
2 58845  53.1592  83.0768 0001443  94.2825 265.8341 15.30188143101994
STARLINK-31273          
1 58846U 24017W   25324.09295004  .00002191  00000+0  86073-4 0  9990
2 58846  53.1597 353.5843 0001358  83.7117 276.4039 15.30198420103275
