[{"OBJECT_NAME":"STARLINK-31258","OBJECT_ID":"2024-017D","EPOCH":"2025-11-20T06:31:41.829024","MEAN_MOTION":15.30190495,"ECCENTRICITY":0.00012907,"INCLINATION":53.162,"RA_OF_ASC_NODE":352.5704,"ARG_OF_PERICENTER":96.5156,"MEAN_ANOMALY":263.5992,"EPHEMERIS_TYPE":0,"CLASSIFICATION_TYPE":"U","NORAD_CAT_ID":58829,"ELEMENT_SET_NO":999,"REV_AT_EPOCH":10330,"BSTAR":3.2649063e-5,"MEAN_MOTION_DOT":6.08e-6,"MEAN_MOTION_DDOT":0},{"OBJECT_NAME":"STARLINK-31253","OBJECT_ID":"2024-017E","EPOCH":"2025-11-20T06:04:20.648064","MEAN_MOTION":15.30191168,"ECCENTRICITY":0.00012672,"INCLINATION":53.1605,"RA_OF_ASC_NODE":352.4534,"ARG_OF_PERICENTER":117.3439,"MEAN_ANOMALY":242.7691,"EPHEMERIS_TYPE":0,"CLASSIFICATION_TYPE":"U","NORAD_CAT_ID":58830,"ELEMENT_SET_NO":999,"REV_AT_EPOCH":10330,"BSTAR":3.5658391e-5,"MEAN_MOTION_DOT":6.97e-6,"MEAN_MOTION_DDOT":0},{"OBJECT_NAME":"STARLINK-31232","OBJECT_ID":"2024-017F","EPOCH":"2025-11-20T05:58:16.026240","MEAN_MOTION":15.3019254,"ECCENTRICITY":0.00015935,"INCLINATION":53.1614,"RA_OF_ASC_NODE":352.4234,"ARG_OF_PERICENTER":76.6291,"MEAN_ANOMALY":283.4888,"EPHEMERIS_TYPE":0,"CLASSIFICATION_TYPE":"U","NORAD_CAT_ID":58831,"ELEMENT_SET_NO":999,"REV_AT_EPOCH":10330,"BSTAR":2.2053993e-5,"MEAN_MOTION_DOT":2.94e-6,"MEAN_MOTION_DDOT":0},{"OBJECT_NAME":"STARLINK-31263","OBJECT_ID":"2024-017G","EPOCH":"2025-11-20T05:27:59.550912","MEAN_MOTION":15.30194653,"ECCENTRICITY":0.00010291,"INCLINATION":53.1589,"RA_OF_ASC_NODE":342.3544,"ARG_OF_PERICENTER":88.9072,"MEAN_ANOMALY":271.2047,"EPHEMERIS_TYPE":0,"CLASSIFICATION_TYPE":"U","NORAD_CAT_ID":58832,"ELEMENT_SET_NO":999,"REV_AT_EPOCH":10355,"BSTAR":6.2767863e-5,"MEAN_MOTION_DOT":1.5e-5,"MEAN_MOTION_DDOT":0},{"OBJECT_NAME":"STARLINK-31171","OBJECT_ID":"2024-017J","EPOCH":"2025-11-20T07:08:45.262176","MEAN_MOTION":15.30193121,"ECCENTRICITY":0.00012919,"INCLINATION":53.1617,"RA_OF_ASC_NODE":328.8798,"ARG_OF_PERICENTER":92.5225,"MEAN_ANOMALY":267.5924,"EPHEMERIS_TYPE":0,"CLASSIFICATION_TYPE":"U","NORAD_CAT_ID":58834,"ELEMENT_SET_NO":999,"REV_AT_EPOCH":10363,"BSTAR":5.9915139e-5,"MEAN_MOTION_DOT":1.415e-5,"MEAN_MOTION_DDOT":0},{"OBJECT_NAME":"STARLINK-31246","OBJECT_ID":"2024-017K","EPOCH":"2025-11-20T06:18:01.508544","MEAN_MOTION":15.3019027,"ECCENTRICITY":0.00012595,"INCLINATION":53.161,"RA_OF_ASC_NODE":352.5095,"ARG_OF_PERICENTER":98.6368,"MEAN_ANOMALY":261.4776,"EPHEMERIS_TYPE":0,"CLASSIFICATION_TYPE":"U","NORAD_CAT_ID":58835,"ELEMENT_SET_NO":999,"REV_AT_EPOCH":10330,"BSTAR":8.0179378e-5,"MEAN_MOTION_DOT":2.015e-5,"MEAN_MOTION_DDOT":0},{"OBJECT_NAME":"STARLINK-31251","OBJECT_ID":"2024-017L","EPOCH":"2025-11-20T06:28:39.554400","MEAN_MOTION":15.30189629,"ECCENTRICITY":0.00013002,"INCLINATION":53.1633,"RA_OF_ASC_NODE":352.5563,"ARG_OF_PERICENTER":89.3401,"MEAN_ANOMALY":270.7749,"EPHEMERIS_TYPE":0,"CLASSIFICATION_TYPE":"U","NORAD_CAT_ID":58836,"ELEMENT_SET_NO":999,"REV_AT_EPOCH":10341,"BSTAR":3.695392e-6,"MEAN_MOTION_DOT":-2.5e-6,"MEAN_MOTION_DDOT":0},{"OBJECT_NAME":"STARLINK-31249","OBJECT_ID":"2024-017N","EPOCH":"2025-11-20T06:37:46.506144","MEAN_MOTION":15.30193216,"ECCENTRICITY":0.00015283,"INCLINATION":53.1619,"RA_OF_ASC_NODE":352.5965,"ARG_OF_PERICENTER":76.843,"MEAN_ANOMALY":283.2742,"EPHEMERIS_TYPE":0,"CLASSIFICATION_TYPE":"U","NORAD_CAT_ID":58838,"ELEMENT_SET_NO":999,"REV_AT_EPOCH":10330,"BSTAR":6.868367e-6,"MEAN_MOTION_DOT":-1.56e-6,"MEAN_MOTION_DDOT":0},{"OBJECT_NAME":"STARLINK-31250","OBJECT_ID":"2024-017P","EPOCH":"2025-11-20T05:50:47.827968","MEAN_MOTION":15.30187695,"ECCENTRICITY":0.00013632,"INCLINATION":53.1613,"RA_OF_ASC_NODE":342.4532,"ARG_OF_PERICENTER":80.285,"MEAN_ANOMALY":279.8304,"EPHEMERIS_TYPE":0,"CLASSIFICATION_TYPE":"U","NORAD_CAT_ID":58839,"ELEMENT_SET_NO":999,"REV_AT_EPOCH":10339,"BSTAR":3.2793137e-5,"MEAN_MOTION_DOT":6.12e-6,"MEAN_MOTION_DDOT":0},{"OBJECT_NAME":"STARLINK-31248","OBJECT_ID":"2024-017Q","EPOCH":"2025-11-20T02:55:31.365984","MEAN_MOTION":15.30180378,"ECCENTRICITY":0.00019887,"INCLINATION":53.1603,"RA_OF_ASC_NODE":5.8115,"ARG_OF_PERICENTER":115.7295,"MEAN_ANOMALY":244.3911,"EPHEMERIS_TYPE":0,"CLASSIFICATION_TYPE":"U","NORAD_CAT_ID":58840,"ELEMENT_SET_NO":999,"REV_AT_EPOCH":10321,"BSTAR":-6.5627453e-5,"MEAN_MOTION_DOT":-2.302e-5,"MEAN_MOTION_DDOT":0},{"OBJECT_NAME":"STARLINK-31236","OBJECT_ID":"2024-017R","EPOCH":"2025-11-20T06:46:53.494176","MEAN_MOTION":15.30196399,"ECCENTRICITY":0.00013558,"INCLINATION":53.1599,"RA_OF_ASC_NODE":352.6358,"ARG_OF_PERICENTER":89.5426,"MEAN_ANOMALY":270.573,"EPHEMERIS_TYPE":0,"CLASSIFICATION_TYPE":"U","NORAD_CAT_ID":58841,"ELEMENT_SET_NO":999,"REV_AT_EPOCH":10330,"BSTAR":5.6203256e-5,"MEAN_MOTION_DOT":1.305e-5,"MEAN_MOTION_DDOT":0},{"OBJECT_NAME":"STARLINK-31228","OBJECT_ID":"2024-017S","EPOCH":"2025-11-20T06:42:20.410560","MEAN_MOTION":15.30180475,"ECCENTRICITY":0.00016895,"INCLINATION":53.1609,"RA_OF_ASC_NODE":352.6166,"ARG_OF_PERICENTER":68.4097,"MEAN_ANOMALY":291.7084,"EPHEMERIS_TYPE":0,"CLASSIFICATION_TYPE":"U","NORAD_CAT_ID":58842,"ELEMENT_SET_NO":999,"REV_AT_EPOCH":10330,"BSTAR":-0.00011224428,"MEAN_MOTION_DOT":-3.68e-5,"MEAN_MOTION_DDOT":0},{"OBJECT_NAME":"STARLINK-31280","OBJECT_ID":"2024-017T","EPOCH":"2025-11-20T02:09:17.268480","MEAN_MOTION":15.30195864,"ECCENTRICITY":0.00012033,"INCLINATION":53.1602,"RA_OF_ASC_NODE":353.5634,"ARG_OF_PERICENTER":100.9465,"MEAN_ANOMALY":259.1672,"EPHEMERIS_TYPE":0,"CLASSIFICATION_TYPE":"U","NORAD_CAT_ID":58843,"ELEMENT_SET_NO":999,"REV_AT_EPOCH":10327,"BSTAR":1.6208369e-5,"MEAN_MOTION_DOT":1.21e-6,"MEAN_MOTION_DDOT":0},{"OBJECT_NAME":"STARLINK-31269","OBJECT_ID":"2024-017U","EPOCH":"2025-11-20T01:20:21.369696","MEAN_MOTION":15.30187027,"ECCENTRICITY":8.038e-5,"INCLINATION":53.1588,"RA_OF_ASC_NODE":83.6886,"ARG_OF_PERICENTER":107.2275,"MEAN_ANOMALY":252.8814,"EPHEMERIS_TYPE":0,"CLASSIFICATION_TYPE":"U","NORAD_CAT_ID":58844,"ELEMENT_SET_NO":999,"REV_AT_EPOCH":10198,"BSTAR":2.6627788e-5,"MEAN_MOTION_DOT":4.3e-6,"MEAN_MOTION_DDOT":0},{"OBJECT_NAME":"STARLINK-31264","OBJECT_ID":"2024-017V","EPOCH":"2025-11-20T01:41:28.391136","MEAN_MOTION":15.30188143,"ECCENTRICITY":0.00014431,"INCLINATION":53.1592,"RA_OF_ASC_NODE":83.0768,"ARG_OF_PERICENTER":94.2825,"MEAN_ANOMALY":265.8341,"EPHEMERIS_TYPE":0,"CLASSIFICATION_TYPE":"U","NORAD_CAT_ID":58845,"ELEMENT_SET_NO":999,"REV_AT_EPOCH":10199,"BSTAR":2.4013406e-5,"MEAN_MOTION_DOT":3.52e-6,"MEAN_MOTION_DDOT":0},{"OBJECT_NAME":"STARLINK-31273","OBJECT_ID":"2024-017W","EPOCH":"2025-11-20T02:13:50.883456","MEAN_MOTION":15.3019842,"ECCENTRICITY":0.00013587,"INCLINATION":53.1597,"RA_OF_ASC_NODE":353.5843,"ARG_OF_PERICENTER":83.7117,"MEAN_ANOMALY":276.4039,"EPHEMERIS_TYPE":0,"CLASSIFICATION_TYPE":"U","NORAD_CAT_ID":58846,"ELEMENT_SET_NO":999,"REV_AT_EPOCH":10327,"BSTAR":8.6072963e-5,"MEAN_MOTION_DOT":2.191e-5,"MEAN_MOTION_DDOT":0}]
